[{"OBJECT_NAME":"JILIN-1 GAOFEN 3I","OBJECT_ID":"2020-065H","EPOCH":"2026-03-09T21:52:33.609504","MEAN_MOTION":15.70055987,"ECCENTRICITY":0.00105914,"INCLINATION":97.2419,"RA_OF_ASC_NODE":125.8258,"ARG_OF_PERICENTER":92.4806,"MEAN_ANOMALY":267.767,"EPHEMERIS_TYPE":0,"CLASSIFICATION_TYPE":"U","NORAD_CAT_ID":46461,"ELEMENT_SET_NO":999,"REV_AT_EPOCH":30463,"BSTAR":0.00089589772,"MEAN_MOTION_DOT":0.00109158,"MEAN_MOTION_DDOT":0},{"OBJECT_NAME":"STARLINK-11231 [DTC]","OBJECT_ID":"2024-164H","EPOCH":"2026-03-09T22:36:21.615840","MEAN_MOTION":15.69699543,"ECCENTRICITY":9.114e-5,"INCLINATION":53.1579,"RA_OF_ASC_NODE":310.3796,"ARG_OF_PERICENTER":111.149,"MEAN_ANOMALY":248.9625,"EPHEMERIS_TYPE":0,"CLASSIFICATION_TYPE":"U","NORAD_CAT_ID":61057,"ELEMENT_SET_NO":999,"REV_AT_EPOCH":8545,"BSTAR":2.1732049e-5,"MEAN_MOTION_DOT":2.044e-5,"MEAN_MOTION_DDOT":0}]
